[{"OBJECT_NAME":"SPAWAR-CAL-O","OBJECT_ID":"2018-099J","EPOCH":"2026-03-09T17:45:15.080832","MEAN_MOTION":15.31356755,"ECCENTRICITY":0.00072392,"INCLINATION":97.4452,"RA_OF_ASC_NODE":132.0993,"ARG_OF_PERICENTER":285.067,"MEAN_ANOMALY":74.977,"EPHEMERIS_TYPE":0,"CLASSIFICATION_TYPE":"U","NORAD_CAT_ID":43766,"ELEMENT_SET_NO":999,"REV_AT_EPOCH":39828,"BSTAR":0.00069663212,"MEAN_MOTION_DOT":0.00021069,"MEAN_MOTION_DDOT":0},{"OBJECT_NAME":"STARLINK-1992","OBJECT_ID":"2021-012N","EPOCH":"2026-03-09T23:22:12.273024","MEAN_MOTION":15.30176508,"ECCENTRICITY":0.00012876,"INCLINATION":53.1605,"RA_OF_ASC_NODE":331.0935,"ARG_OF_PERICENTER":90.4017,"MEAN_ANOMALY":269.7132,"EPHEMERIS_TYPE":0,"CLASSIFICATION_TYPE":"U","NORAD_CAT_ID":47632,"ELEMENT_SET_NO":999,"REV_AT_EPOCH":28140,"BSTAR":1.1821486e-5,"MEAN_MOTION_DOT":-9.0e-8,"MEAN_MOTION_DDOT":0}]
